ONEWEB-0228             
1 48780U 21045P   23290.46378570  .00000037  00000+0  65286-4 0  9995
2 48780  87.8943  93.0475 0001722  85.3109 274.8218 13.15548255117431
